[{"OBJECT_NAME":"LEMUR-2-ANDIS","OBJECT_ID":"2017-042P","EPOCH":"2026-03-09T13:25:33.116448","MEAN_MOTION":15.30557934,"ECCENTRICITY":0.0009101,"INCLINATION":97.3659,"RA_OF_ASC_NODE":249.795,"ARG_OF_PERICENTER":4.3248,"MEAN_ANOMALY":355.807,"EPHEMERIS_TYPE":0,"CLASSIFICATION_TYPE":"U","NORAD_CAT_ID":42838,"ELEMENT_SET_NO":999,"REV_AT_EPOCH":47319,"BSTAR":0.00079875,"MEAN_MOTION_DOT":0.00023598,"MEAN_MOTION_DDOT":0},{"OBJECT_NAME":"STARLINK-30397","OBJECT_ID":"2023-134A","EPOCH":"2026-03-09T08:36:14.747328","MEAN_MOTION":15.27596688,"ECCENTRICITY":7.4e-5,"INCLINATION":42.9993,"RA_OF_ASC_NODE":196.5752,"ARG_OF_PERICENTER":162.6936,"MEAN_ANOMALY":197.3941,"EPHEMERIS_TYPE":0,"CLASSIFICATION_TYPE":"U","NORAD_CAT_ID":57771,"ELEMENT_SET_NO":999,"REV_AT_EPOCH":13945,"BSTAR":-0.00017550571,"MEAN_MOTION_DOT":-5.09e-5,"MEAN_MOTION_DDOT":0}]
